NORAD_CAT_ID,OBJECT_NAME,OBJECT_TYPE,EPOCH,MEAN_MOTION,ECCENTRICITY,INCLINATION,RA_OF_ASC_NODE,ARG_OF_PERICENTER,MEAN_ANOMALY,BSTAR,MEAN_MOTION_DOT,MEAN_MOTION_DDOT,TLE_LINE0,TLE_LINE1,TLE_LINE2,SEMIMAJOR_AXIS,PERIOD,APOGEE,PERIGEE,DECAYED
54200.0,STARLINK-5250,PAYLOAD,2024-08-12 12:53:14,15.08847942,0.0001454,53.2193,51.3593,84.8537,275.2621,0.00043749,6.683e-05,0.0,0 STARLINK-5250,1 54200U 22141AV  24225.53697750  .00006683  00000-0  43749-3 0  9991,2 54200  53.2193  51.3593 0001454  84.8537 275.2621 15.08847942 99552,6917.856,95.437,540.727,538.715,0.0
54200.0,STARLINK-5250,PAYLOAD,2024-08-12 19:14:46,15.08866287,0.00017,53.2141,50.1724,97.9413,262.1772,0.0008786,0.00013733,0.0,0 STARLINK-5250,1 54200U 22141AV  24225.80193048  .00013733  00000-0  87860-3 0  9998,2 54200  53.2141  50.1724 0001700  97.9413 262.1772 15.08866287 99599,6917.8,95.436,540.841,538.489,0.0
54200.0,STARLINK-5250,PAYLOAD,2024-08-13 04:47:06,15.08843485,0.0001414,53.2186,48.3864,90.8072,269.3082,0.00011611,1.561e-05,0.0,0 STARLINK-5250,1 54200U 22141AV  24226.19937571  .00001561  00000-0  11611-3 0  9995,2 54200  53.2186  48.3864 0001414  90.8072 269.3082 15.08843485 99652,6917.87,95.437,540.713,538.757,0.0
54200.0,STARLINK-5250,PAYLOAD,2024-08-13 12:44:03,15.08790695,0.000132,53.2175,46.8986,77.2951,282.8188,-0.0012369,-0.00019892,0.0,0 STARLINK-5250,1 54200U 22141AV  24226.53059215 -.00019892  00000-0 -12369-2 0  9991,2 54200  53.2175  46.8986 0001320  77.2951 282.8188 15.08790695 99706,6918.031,95.441,540.809,538.983,0.0
54200.0,STARLINK-5250,PAYLOAD,2024-08-13 19:05:36,15.0878977,0.0001524,53.2186,45.71,83.1209,276.9957,-0.00092768,-0.00015001,0.0,0 STARLINK-5250,1 54200U 22141AV  24226.79556035 -.00015001  00000-0 -92768-3 0  9991,2 54200  53.2186  45.7100 0001524  83.1209 276.9957 15.08789770 99511,6918.034,95.441,540.953,538.845,0.0
54200.0,STARLINK-5250,PAYLOAD,2024-08-14 04:37:56,15.08793407,0.000267,53.2254,43.9267,90.9267,269.2031,-0.00037863,-6.302e-05,0.0,0 STARLINK-5250,1 54200U 22141AV  24227.19301435 -.00006302  00000-0 -37863-3 0  9997,2 54200  53.2254  43.9267 0002670  90.9267 269.2031 15.08793407 99806,6918.023,95.441,541.735,538.041,0.0
54200.0,STARLINK-5250,PAYLOAD,2024-08-14 10:59:28,15.08820612,5.78e-05,53.2148,42.7334,36.7682,323.335,0.00061205,9.461e-05,0.0,0 STARLINK-5250,1 54200U 22141AV  24227.45796750  .00009461  00000-0  61205-3 0  9998,2 54200  53.2148  42.7334 0000578  36.7682 323.3350 15.08820612 99843,6917.94,95.439,540.205,539.405,0.0
54200.0,STARLINK-5250,PAYLOAD,2024-08-14 18:56:23,15.08844092,0.0001141,53.2171,41.2496,68.8029,291.3085,0.0012011,0.00018881,0.0,0 STARLINK-5250,1 54200U 22141AV  24227.78916584  .00018881  00000-0  12011-2 0  9999,2 54200  53.2171  41.2496 0001141  68.8029 291.3085 15.08844092 99892,6917.868,95.437,540.522,538.944,0.0
54200.0,STARLINK-5250,PAYLOAD,2024-08-15 04:28:42,15.08855171,0.0001185,53.2176,39.4656,69.0326,291.0793,0.00088622,0.0001385,0.0,0 STARLINK-5250,1 54200U 22141AV  24228.18660074  .00013850  00000-0  88622-3 0  9997,2 54200  53.2176  39.4656 0001185  69.0326 291.0793 15.08855171 99720,6917.834,95.437,540.519,538.879,0.0
54200.0,STARLINK-5250,PAYLOAD,2024-08-16 04:19:27,15.08866226,0.0001181,53.2175,35.0052,70.4215,289.6904,0.0001803,2.585e-05,0.0,0 STARLINK-5250,1 54200U 22141AV  24229.18018198  .00002585  00000-0  18030-3 0  9991,2 54200  53.2175  35.0052 0001181  70.4215 289.6904 15.08866226100105,6917.8,95.436,540.482,538.848,0.0
54200.0,STARLINK-5250,PAYLOAD,2024-08-16 20:13:19,15.08847851,0.0001186,53.2175,32.0313,71.1011,289.011,-0.00016885,-2.975e-05,0.0,0 STARLINK-5250,1 54200U 22141AV  24229.84258135 -.00002975  00000-0 -16885-3 0  9992,2 54200  53.2175  32.0313 0001186  71.1011 289.0110 15.08847851100206,6917.856,95.437,540.542,538.901,0.0
54200.0,STARLINK-5250,PAYLOAD,2024-08-17 20:04:06,15.08839678,0.0001179,53.2188,27.5713,75.8929,284.2194,9.1266e-06,-1.43e-06,0.0,0 STARLINK-5250,1 54200U 22141AV  24230.83619162 -.00000143  00000-0  91266-5 0  9996,2 54200  53.2188  27.5713 0001179  75.8929 284.2194 15.08839678100357,6917.881,95.438,540.562,538.931,0.0
54200.0,STARLINK-5250,PAYLOAD,2024-08-18 19:54:51,15.08855964,0.0001169,53.2182,23.1084,98.5783,261.5341,0.00028118,4.192e-05,0.0,0 STARLINK-5250,1 54200U 22141AV  24231.82976748  .00004192  00000-0  28118-3 0  9993,2 54200  53.2182  23.1084 0001169  98.5783 261.5341 15.08855964100508,6917.832,95.437,540.505,538.888,0.0
54200.0,STARLINK-5250,PAYLOAD,2024-08-19 10:13:21,15.08836985,4.8e-05,53.2201,20.4319,93.5758,266.5289,-7.9859e-06,-4.15e-06,0.0,0 STARLINK-5250,1 54200U 22141AV  24232.42594714 -.00000415  00000-0 -79859-5 0  9995,2 54200  53.2201  20.4319 0000480  93.5758 266.5289 15.08836985100590,6917.89,95.438,540.087,539.423,0.0
54200.0,STARLINK-5250,PAYLOAD,2024-08-20 13:14:54,15.0884691,0.000109,53.2179,15.3785,102.8855,257.2259,-7.6486e-05,-1.505e-05,0.0,0 STARLINK-5250,1 54200U 22141AV  24233.55202416 -.00001505  00000-0 -76486-4 0  9998,2 54200  53.2179  15.3785 0001090 102.8855 257.2259 15.08846910100766,6917.859,95.437,540.478,538.97,0.0
54200.0,STARLINK-5250,PAYLOAD,2024-08-20 14:50:17,15.08848391,0.0001142,53.2184,15.0812,104.093,256.0189,-6.5473e-05,-1.33e-05,0.0,0 STARLINK-5250,1 54200U 22141AV  24233.61826274 -.00001330  00000-0 -65473-4 0  9999,2 54200  53.2184  15.0812 0001142 104.0930 256.0189 15.08848391100546,6917.855,95.437,540.51,538.93,0.0
54200.0,STARLINK-5250,PAYLOAD,2024-08-21 13:05:42,15.08832378,0.0001341,53.2184,10.9177,104.8625,255.2516,7.8634e-05,9.64e-06,0.0,0 STARLINK-5250,1 54200U 22141AV  24234.54563212  .00000964  00000-0  78634-4 0  9995,2 54200  53.2184  10.9177 0001341 104.8625 255.2516 15.08832378100918,6917.904,95.438,540.696,538.841,0.0
54200.0,STARLINK-5250,PAYLOAD,2024-08-21 14:41:05,15.08833149,0.0001337,53.2189,10.6205,104.9492,255.1649,8.1506e-05,1.009e-05,0.0,0 STARLINK-5250,1 54200U 22141AV  24234.61187200  .00001009  00000-0  81506-4 0  9995,2 54200  53.2189  10.6205 0001337 104.9492 255.1649 15.08833149100698,6917.901,95.438,540.691,538.841,0.0
